     2              NAVIGATION DATA                         RINEX VERSION / TYPE
CCRINEXN V1.6.0 UX  CDDIS               17-SEP-15 17:31     PGM / RUN BY / DATE 
IGS BROADCAST EPHEMERIS FILE                                COMMENT             
    0.1211D-07  0.1490D-07 -0.5960D-07 -0.1192D-06          ION ALPHA           
    0.9626D+05  0.8192D+05 -0.1966D+06 -0.3932D+06          ION BETA            
    0.186264514923D-08 0.124344978758D-13   405504     1862 DELTA-UTC: A0,A1,T,W
    17                                                      LEAP SECONDS        
                                                            END OF HEADER       
16 15  9 16 14  0  0.0-0.859801657498D-04 0.397903932026D-11 0.000000000000D+00
    0.170000000000D+02-0.405000000000D+02 0.367908181995D-08-0.292667325489D+01
   -0.206567347050D-05 0.809246266726D-02 0.122077763081D-04 0.515362750053D+04
    0.309600000000D+06-0.102445483208D-06 0.317035187045D+00-0.931322574615D-07
    0.990893881245D+00 0.161500000000D+03 0.322238311205D+00-0.744531012705D-08
    0.242867259253D-10 0.000000000000D+00 0.186200000000D+04 0.000000000000D+00
    0.200000000000D+01 0.000000000000D+00-0.102445483208D-07 0.170000000000D+02
    0.302400000000D+06 0.400000000000D+01 0.000000000000D+00 0.000000000000D+00
17 15  9 16 14  0  0.0-0.187892001122D-03-0.125055521494D-11 0.000000000000D+00
    0.800000000000D+02 0.439062500000D+02 0.440196907397D-08 0.237083369344D+01
    0.215508043766D-05 0.103846752318D-01 0.720471143722D-05 0.515356733894D+04
    0.309600000000D+06 0.353902578354D-07 0.134185055879D+01-0.214204192162D-06
    0.973323674815D+00 0.245250000000D+03-0.200862370729D+01-0.783639784600D-08
    0.392159192147D-09 0.100000000000D+01 0.186200000000D+04 0.000000000000D+00
    0.200000000000D+01 0.000000000000D+00-0.107102096081D-07 0.800000000000D+02
    0.303222000000D+06 0.400000000000D+01 0.000000000000D+00 0.000000000000D+00
18 15  9 16 14  0  0.0 0.434547197074D-03 0.329691829393D-11 0.000000000000D+00
    0.650000000000D+02-0.200000000000D+01 0.490484716372D-08-0.235946071813D+01
   -0.135973095894D-06 0.163611184107D-01 0.111758708954D-04 0.515363623619D+04
    0.309600000000D+06 0.203028321266D-06-0.291554374865D+01-0.670552253723D-07
    0.925507798018D+00 0.144281250000D+03-0.193645507795D+01-0.787604235449D-08
   -0.175364447490D-09 0.000000000000D+00 0.186200000000D+04 0.000000000000D+00
    0.200000000000D+01 0.000000000000D+00-0.111758708954D-07 0.650000000000D+02
    0.302400000000D+06 0.400000000000D+01 0.000000000000D+00 0.000000000000D+00
21 15  9 16 14  0  0.0-0.480131711811D-03-0.272848410532D-11 0.000000000000D+00
    0.280000000000D+02-0.381250000000D+02 0.547522806523D-08-0.138307850586D+01
   -0.168755650520D-05 0.225602854043D-01 0.462867319584D-05 0.515375276947D+04
    0.309600000000D+06 0.279396772385D-06 0.232505538503D+01 0.517815351486D-06
    0.934576359897D+00 0.272343750000D+03-0.187819760581D+01-0.859357224249D-08
   -0.391802034413D-09 0.000000000000D+00 0.186200000000D+04 0.000000000000D+00
    0.200000000000D+01 0.000000000000D+00-0.116415321827D-07 0.280000000000D+02
    0.303150000000D+06 0.400000000000D+01 0.000000000000D+00 0.000000000000D+00
22 15  9 16 14  0  0.0 0.391878187656D-03 0.352429196937D-11 0.000000000000D+00
    0.560000000000D+02-0.515625000000D+01 0.497342144868D-08-0.284315740199D+01
   -0.296160578728D-06 0.801370048430D-02 0.116247683763D-04 0.515368903351D+04
    0.309600000000D+06 0.856816768646D-07-0.291458019766D+01-0.596046447754D-07
    0.923332602680D+00 0.133093750000D+03-0.203912316468D+01-0.806390732268D-08
   -0.252153360342D-09 0.000000000000D+00 0.186200000000D+04 0.000000000000D+00
    0.200000000000D+01 0.000000000000D+00-0.176951289177D-07 0.560000000000D+02
    0.302400000000D+06 0.400000000000D+01 0.000000000000D+00 0.000000000000D+00
23 15  9 16 14  0  0.0-0.133542809635D-03-0.216004991671D-11 0.000000000000D+00
    0.240000000000D+02 0.850000000000D+02 0.480520015587D-08 0.122497763845D+01
    0.457651913166D-05 0.103849782608D-01 0.719167292118D-05 0.515380302429D+04
    0.309600000000D+06-0.122934579849D-06-0.184198965774D+01 0.763684511185D-07
    0.947399692668D+00 0.234437500000D+03-0.262938905503D+01-0.838249202158D-08
    0.231081054025D-09 0.000000000000D+00 0.186200000000D+04 0.000000000000D+00
    0.200000000000D+01 0.000000000000D+00-0.200234353542D-07 0.240000000000D+02
    0.302760000000D+06 0.400000000000D+01 0.000000000000D+00 0.000000000000D+00
24 15  9 16 14  0  0.0-0.478932633996D-05-0.682121026330D-12 0.000000000000D+00
    0.620000000000D+02-0.428437500000D+02 0.497627871055D-08 0.518889198549D+00
   -0.224821269512D-05 0.340908567887D-02 0.362470746040D-05 0.515365637207D+04
    0.309600000000D+06 0.540167093277D-07-0.814852133222D+00 0.316649675369D-07
    0.952140692710D+00 0.306812500000D+03 0.307315164339D+00-0.851428322550D-08
   -0.187864968187D-09 0.000000000000D+00 0.186200000000D+04 0.000000000000D+00
    0.280000000000D+01 0.000000000000D+00 0.232830643654D-08 0.620000000000D+02
    0.302700000000D+06 0.400000000000D+01 0.000000000000D+00 0.000000000000D+00
25 15  9 16 14  0  0.0-0.395397655666D-04-0.511590769747D-11 0.000000000000D+00
    0.760000000000D+02-0.286250000000D+02 0.401838166744D-08-0.156546454631D+01
   -0.157766044140D-05 0.463361490984D-02 0.111628323793D-04 0.515362956047D+04
    0.309600000000D+06 0.707805156708D-07 0.250444461000D+00-0.204890966415D-07
    0.978793973166D+00 0.173531250000D+03 0.749279112471D+00-0.767960560068D-08
    0.389301930274D-10 0.000000000000D+00 0.186200000000D+04 0.000000000000D+00
    0.200000000000D+01 0.000000000000D+00 0.512227416039D-08 0.760000000000D+02
    0.302400000000D+06 0.400000000000D+01 0.000000000000D+00 0.000000000000D+00
26 15  9 16 14  0  0.0-0.546183437109D-04-0.110276232590D-10 0.000000000000D+00
    0.630000000000D+02-0.396250000000D+02 0.435160983345D-08-0.284117137513D+01
   -0.218860805035D-05 0.166257494129D-03 0.115465372801D-04 0.515363988876D+04
    0.309600000000D+06 0.111758708954D-07 0.245911735142D+00-0.111758708954D-07
    0.960864314598D+00 0.159093750000D+03 0.721844269494D+00-0.791425823205D-08
   -0.303584074067D-10 0.000000000000D+00 0.186200000000D+04 0.000000000000D+00
    0.200000000000D+01 0.000000000000D+00 0.745058059692D-08 0.630000000000D+02
    0.302400000000D+06 0.400000000000D+01 0.000000000000D+00 0.000000000000D+00
27 15  9 16 14  0  0.0 0.201552174985D-04 0.295585778076D-11 0.000000000000D+00
    0.390000000000D+02 0.509687500000D+02 0.463769317854D-08 0.232885106643D+01
    0.268220901489D-05 0.264096003957D-02 0.756792724132D-05 0.515369842720D+04
    0.309600000000D+06-0.763684511185D-07 0.129339796445D+01 0.428408384323D-07
    0.968262895510D+00 0.236656250000D+03 0.321402310576D+00-0.807426489697D-08
    0.505021036153D-09 0.000000000000D+00 0.186200000000D+04 0.000000000000D+00
    0.200000000000D+01 0.000000000000D+00 0.139698386192D-08 0.390000000000D+02
    0.306210000000D+06 0.400000000000D+01 0.000000000000D+00 0.000000000000D+00
29 15  9 16 14  0  0.0 0.634520314634D-03 0.227373675443D-11 0.000000000000D+00
    0.400000000000D+02 0.510625000000D+02 0.453340312015D-08-0.144343516158D+01
    0.269711017609D-05 0.886610243470D-03 0.670179724693D-05 0.515369454384D+04
    0.309600000000D+06 0.204890966415D-07 0.135132515212D+01-0.558793544769D-07
    0.974200634224D+00 0.255562500000D+03-0.464662159341D+00-0.812819571483D-08
    0.412874340731D-09 0.000000000000D+00 0.186200000000D+04 0.000000000000D+00
    0.200000000000D+01 0.000000000000D+00-0.102445483208D-07 0.400000000000D+02
    0.302400000000D+06 0.400000000000D+01 0.000000000000D+00 0.000000000000D+00
30 15  9 16 14  0  0.0 0.254865735769D-04 0.659383658785D-11 0.000000000000D+00
    0.310000000000D+02-0.450937500000D+02 0.487127433670D-08-0.476663656920D+00
   -0.235065817833D-05 0.171164073981D-02 0.383332371712D-05 0.515369253921D+04
    0.309600000000D+06 0.614672899246D-07-0.724305589664D+00 0.130385160446D-07
    0.954814497342D+00 0.299187500000D+03 0.311582200135D+01-0.844392315186D-08
   -0.163221084528D-09 0.100000000000D+01 0.186200000000D+04 0.000000000000D+00
    0.200000000000D+01 0.000000000000D+00 0.325962901115D-08 0.310000000000D+02
    0.302418000000D+06 0.400000000000D+01 0.000000000000D+00 0.000000000000D+00
31 15  9 16 14  0  0.0 0.302640721202D-03-0.136424205266D-11 0.000000000000D+00
    0.510000000000D+02-0.482500000000D+02 0.449375861166D-08-0.443905948476D+00
   -0.265240669251D-05 0.810307159554D-02 0.421330332756D-05 0.515358839226D+04
    0.309600000000D+06-0.130385160446D-07-0.763821883082D+00-0.156462192535D-06
    0.973887107473D+00 0.300250000000D+03-0.521590119831D+00-0.833713298934D-08
   -0.166435504135D-09 0.000000000000D+00 0.186200000000D+04 0.000000000000D+00
    0.200000000000D+01 0.000000000000D+00-0.135041773319D-07 0.510000000000D+02
    0.302400000000D+06 0.400000000000D+01 0.000000000000D+00 0.000000000000D+00
32 15  9 16 14  0  0.0-0.417144037783D-04 0.111413100967D-10 0.000000000000D+00
    0.730000000000D+02 0.368750000000D+01 0.469340978507D-08 0.187778350636D-01
    0.931322574615D-07 0.113362963311D-01 0.115800648928D-04 0.515369185066D+04
    0.309600000000D+06 0.163912773132D-06-0.281106556558D+01 0.745058059692D-08
    0.947336869115D+00 0.148437500000D+03 0.121112467175D+00-0.821927093705D-08
   -0.245367363393D-09 0.000000000000D+00 0.186200000000D+04 0.000000000000D+00
    0.200000000000D+01 0.000000000000D+00-0.372529029846D-08 0.730000000000D+02
    0.302400000000D+06 0.400000000000D+01 0.000000000000D+00 0.000000000000D+00
